start=new Date('2022-05-10T00:00:00.000Z').valueOf();
sats=[{"DECAY_DATE":null,"OBJECT_TYPE":"PAYLOAD","MEAN_MOTION":"15.06402206","ARG_OF_PERICENTER":"69.6340","ELEMENT_SET_NO":"999","RCS_SIZE":"LARGE","MEAN_MOTION_DOT":"0.00000843","PERIOD":"95.592","MEAN_ELEMENT_THEORY":"SGP4","CLASSIFICATION_TYPE":"U","GP_ID":"203140282","SITE":"AFETR","OBJECT_NAME":"STARLINK-1343","LAUNCH_DATE":"2020-04-22","REF_FRAME":"TEME","TLE_LINE2":"2 45584  53.0558 240.9586 0001523  69.6340 290.4813 15.06402206114512","COUNTRY_CODE":"US","EPOCH":"2022-05-09T19:15:54.684000","OBJECT_ID":"2020-025BF","FILE":"3438010","REV_AT_EPOCH":"11451","APOAPSIS":"548.262","NORAD_CAT_ID":"45584","TLE_LINE1":"1 45584U 20025BF  22129.80271625  .00000843  00000-0  75499-4 0  9995","RA_OF_ASC_NODE":"240.9586","MEAN_ANOMALY":"290.4813","CENTER_NAME":"EARTH","EPHEMERIS_TYPE":"0","TIME_SYSTEM":"UTC","ECCENTRICITY":"0.00015230","INCLINATION":"53.0558","MEAN_MOTION_DDOT":"0.0000000000000","BSTAR":"0.00007549900000","SEMIMAJOR_AXIS":"6925.342","PERIAPSIS":"546.152"},{"FILE":"3438010","APOAPSIS":"548.314","NORAD_CAT_ID":"45586","REV_AT_EPOCH":"11448","RA_OF_ASC_NODE":"241.4600","TLE_LINE1":"1 45586U 20025BH  22129.69214107  .00000600  00000-0  59169-4 0  9993","TIME_SYSTEM":"UTC","EPHEMERIS_TYPE":"0","CENTER_NAME":"EARTH","MEAN_ANOMALY":"301.7134","ECCENTRICITY":"0.00015670","INCLINATION":"53.0566","MEAN_MOTION_DDOT":"0.0000000000000","PERIAPSIS":"546.143","SEMIMAJOR_AXIS":"6925.364","BSTAR":"0.00005916900000","OBJECT_TYPE":"PAYLOAD","DECAY_DATE":null,"ELEMENT_SET_NO":"999","ARG_OF_PERICENTER":"58.4008","MEAN_MOTION":"15.06395082","PERIOD":"95.592","RCS_SIZE":"LARGE","MEAN_MOTION_DOT":"0.00000600","GP_ID":"203140020","CLASSIFICATION_TYPE":"U","MEAN_ELEMENT_THEORY":"SGP4","TLE_LINE2":"2 45586  53.0566 241.4600 0001567  58.4008 301.7134 15.06395082114482","REF_FRAME":"TEME","SITE":"AFETR","OBJECT_NAME":"STARLINK-1347","LAUNCH_DATE":"2020-04-22","EPOCH":"2022-05-09T16:36:40.988448","COUNTRY_CODE":"US","OBJECT_ID":"2020-025BH"},{"OBJECT_TYPE":"PAYLOAD","DECAY_DATE":null,"ELEMENT_SET_NO":"999","ARG_OF_PERICENTER":"60.1167","MEAN_MOTION":"15.06395898","PERIOD":"95.592","RCS_SIZE":"LARGE","MEAN_MOTION_DOT":"0.00000222","GP_ID":"203138782","CLASSIFICATION_TYPE":"U","MEAN_ELEMENT_THEORY":"SGP4","TLE_LINE2":"2 45587  53.0558 241.2826 0001518  60.1167 299.9973 15.06395898114501","REF_FRAME":"TEME","OBJECT_NAME":"STARLINK-1349","SITE":"AFETR","LAUNCH_DATE":"2020-04-22","EPOCH":"2022-05-09T17:29:45.015072","COUNTRY_CODE":"US","OBJECT_ID":"2020-025BJ","FILE":"3438010","APOAPSIS":"548.277","NORAD_CAT_ID":"45587","REV_AT_EPOCH":"11450","RA_OF_ASC_NODE":"241.2826","TLE_LINE1":"1 45587U 20025BJ  22129.72899323  .00000222  00000-0  33829-4 0  9992","TIME_SYSTEM":"UTC","EPHEMERIS_TYPE":"0","CENTER_NAME":"EARTH","MEAN_ANOMALY":"299.9973","ECCENTRICITY":"0.00015180","INCLINATION":"53.0558","MEAN_MOTION_DDOT":"0.0000000000000","SEMIMAJOR_AXIS":"6925.361","PERIAPSIS":"546.175","BSTAR":"0.00003382900000"},{"EPOCH":"2022-05-09T15:22:21.820512","COUNTRY_CODE":"US","OBJECT_ID":"2020-025BK","REF_FRAME":"TEME","SITE":"AFETR","LAUNCH_DATE":"2020-04-22","OBJECT_NAME":"STARLINK-1360","TLE_LINE2":"2 45588  53.0553 241.6941 0001365  82.9295 277.1849 15.06400459114480","MEAN_MOTION_DOT":"0.00001918","RCS_SIZE":"LARGE","PERIOD":"95.592","CLASSIFICATION_TYPE":"U","MEAN_ELEMENT_THEORY":"SGP4","GP_ID":"203139029","OBJECT_TYPE":"PAYLOAD","DECAY_DATE":null,"ELEMENT_SET_NO":"999","MEAN_MOTION":"15.06400459","ARG_OF_PERICENTER":"82.9295","MEAN_MOTION_DDOT":"0.0000000000000","BSTAR":"0.00014764000000","SEMIMAJOR_AXIS":"6925.347","PERIAPSIS":"546.267","ECCENTRICITY":"0.00013650","INCLINATION":"53.0553","TLE_LINE1":"1 45588U 20025BK  22129.64053033  .00001918  00000-0  14764-3 0  9993","RA_OF_ASC_NODE":"241.6941","CENTER_NAME":"EARTH","MEAN_ANOMALY":"277.1849","TIME_SYSTEM":"UTC","EPHEMERIS_TYPE":"0","FILE":"3438010","REV_AT_EPOCH":"11448","NORAD_CAT_ID":"45588","APOAPSIS":"548.157"},{"TIME_SYSTEM":"UTC","EPHEMERIS_TYPE":"0","CENTER_NAME":"EARTH","MEAN_ANOMALY":"302.6996","RA_OF_ASC_NODE":"241.9989","TLE_LINE1":"1 45589U 20025BL  22129.57049288  .00003300  00000-0  24028-3 0  9994","NORAD_CAT_ID":"45589","APOAPSIS":"548.346","REV_AT_EPOCH":"11447","FILE":"3437431","SEMIMAJOR_AXIS":"6925.338","PERIAPSIS":"546.059","BSTAR":"0.00024028000000","MEAN_MOTION_DDOT":"0.0000000000000","INCLINATION":"53.0549","ECCENTRICITY":"0.00016510","GP_ID":"203099974","CLASSIFICATION_TYPE":"U","MEAN_ELEMENT_THEORY":"SGP4","PERIOD":"95.592","MEAN_MOTION_DOT":"0.00003300","RCS_SIZE":"LARGE","ELEMENT_SET_NO":"999","MEAN_MOTION":"15.06403493","ARG_OF_PERICENTER":"57.4152","OBJECT_TYPE":"PAYLOAD","DECAY_DATE":null,"OBJECT_ID":"2020-025BL","EPOCH":"2022-05-09T13:41:30.584832","COUNTRY_CODE":"US","TLE_LINE2":"2 45589  53.0549 241.9989 0001651  57.4152 302.6996 15.06403493114475","REF_FRAME":"TEME","OBJECT_NAME":"STARLINK-1364","SITE":"AFETR","LAUNCH_DATE":"2020-04-22"},{"PERIOD":"95.592","RCS_SIZE":"LARGE","MEAN_MOTION_DOT":"0.00003068","GP_ID":"203140520","MEAN_ELEMENT_THEORY":"SGP4","CLASSIFICATION_TYPE":"U","OBJECT_TYPE":"PAYLOAD","DECAY_DATE":null,"MEAN_MOTION":"15.06408609","ARG_OF_PERICENTER":"67.0908","ELEMENT_SET_NO":"999","COUNTRY_CODE":"US","EPOCH":"2022-05-09T18:50:40.970688","OBJECT_ID":"2020-025BM","TLE_LINE2":"2 45590  53.0549 271.0424 0001597  67.0908 293.0249 15.06408609114108","SITE":"AFETR","OBJECT_NAME":"STARLINK-1365","LAUNCH_DATE":"2020-04-22","REF_FRAME":"TEME","RA_OF_ASC_NODE":"271.0424","TLE_LINE1":"1 45590U 20025BM  22129.78519642  .00003068  00000-0  22472-3 0  9997","EPHEMERIS_TYPE":"0","TIME_SYSTEM":"UTC","MEAN_ANOMALY":"293.0249","CENTER_NAME":"EARTH","FILE":"3438010","NORAD_CAT_ID":"45590","APOAPSIS":"548.293","REV_AT_EPOCH":"11410","MEAN_MOTION_DDOT":"0.0000000000000","PERIAPSIS":"546.081","SEMIMAJOR_AXIS":"6925.322","BSTAR":"0.00022472000000","ECCENTRICITY":"0.00015970","INCLINATION":"53.0549"},{"ELEMENT_SET_NO":"999","ARG_OF_PERICENTER":"67.6087","MEAN_MOTION":"15.06385857","OBJECT_TYPE":"PAYLOAD","DECAY_DATE":null,"CLASSIFICATION_TYPE":"U","MEAN_ELEMENT_THEORY":"SGP4","GP_ID":"203099979","RCS_SIZE":"LARGE","MEAN_MOTION_DOT":"0.00000547","PERIOD":"95.593","REF_FRAME":"TEME","LAUNCH_DATE":"2020-06-04","SITE":"AFETR","OBJECT_NAME":"STARLINK-1441","TLE_LINE2":"2 45658  53.0556 232.0388 0001581  67.6087 292.5070 15.06385857107707","OBJECT_ID":"2020-035B","EPOCH":"2022-05-09T13:26:55.891968","COUNTRY_CODE":"US","REV_AT_EPOCH":"10770","NORAD_CAT_ID":"45658","APOAPSIS":"548.352","FILE":"3437431","CENTER_NAME":"EARTH","MEAN_ANOMALY":"292.5070","TIME_SYSTEM":"UTC","EPHEMERIS_TYPE":"0","TLE_LINE1":"1 45658U 20035B   22129.56036912  .00000547  00000-0  55648-4 0  9994","RA_OF_ASC_NODE":"232.0388","INCLINATION":"53.0556","ECCENTRICITY":"0.00015810","BSTAR":"0.00005564800000","PERIAPSIS":"546.162","SEMIMAJOR_AXIS":"6925.392","MEAN_MOTION_DDOT":"0.0000000000000"},{"MEAN_MOTION":"15.06409106","ARG_OF_PERICENTER":"60.9355","ELEMENT_SET_NO":"999","OBJECT_TYPE":"PAYLOAD","DECAY_DATE":null,"MEAN_ELEMENT_THEORY":"SGP4","CLASSIFICATION_TYPE":"U","GP_ID":"203140525","RCS_SIZE":"LARGE","MEAN_MOTION_DOT":"0.00000665","PERIOD":"95.592","SITE":"AFETR","LAUNCH_DATE":"2020-06-04","OBJECT_NAME":"STARLINK-1442","REF_FRAME":"TEME","TLE_LINE2":"2 45659  53.0549 231.4449 0001486  60.9355 299.1782 15.06409106107717","OBJECT_ID":"2020-035C","COUNTRY_CODE":"US","EPOCH":"2022-05-09T16:41:56.219712","REV_AT_EPOCH":"10771","NORAD_CAT_ID":"45659","APOAPSIS":"548.215","FILE":"3438010","MEAN_ANOMALY":"299.1782","CENTER_NAME":"EARTH","EPHEMERIS_TYPE":"0","TIME_SYSTEM":"UTC","TLE_LINE1":"1 45659U 20035C   22129.69578958  .00000665  00000-0  63549-4 0  9990","RA_OF_ASC_NODE":"231.4449","INCLINATION":"53.0549","ECCENTRICITY":"0.00014860","BSTAR":"0.00006354900000","SEMIMAJOR_AXIS":"6925.321","PERIAPSIS":"546.157","MEAN_MOTION_DDOT":"0.0000000000000"},{"ARG_OF_PERICENTER":"52.7794","MEAN_MOTION":"15.06394969","ELEMENT_SET_NO":"999","OBJECT_TYPE":"PAYLOAD","DECAY_DATE":null,"MEAN_ELEMENT_THEORY":"SGP4","CLASSIFICATION_TYPE":"U","GP_ID":"203139287","MEAN_MOTION_DOT":"0.00000504","RCS_SIZE":"LARGE","PERIOD":"95.592","SITE":"AFETR","OBJECT_NAME":"STARLINK-1443","LAUNCH_DATE":"2020-06-04","REF_FRAME":"TEME","TLE_LINE2":"2 45660  53.0548 231.4023 0001753  52.7794 307.3355 15.06394969107728","OBJECT_ID":"2020-035D","COUNTRY_CODE":"US","EPOCH":"2022-05-09T16:53:55.952448","REV_AT_EPOCH":"10772","NORAD_CAT_ID":"45660","APOAPSIS":"548.443","FILE":"3438010","MEAN_ANOMALY":"307.3355","CENTER_NAME":"EARTH","EPHEMERIS_TYPE":"0","TIME_SYSTEM":"UTC","TLE_LINE1":"1 45660U 20035D   22129.70411982  .00000504  00000-0  52742-4 0  9992","RA_OF_ASC_NODE":"231.4023","INCLINATION":"53.0548","ECCENTRICITY":"0.00017530","BSTAR":"0.00005274200000","PERIAPSIS":"546.015","SEMIMAJOR_AXIS":"6925.364","MEAN_MOTION_DDOT":"0.0000000000000"},{"TLE_LINE2":"2 45661  53.0558 231.6129 0001395  66.7789 293.3347 15.06396656107719","REF_FRAME":"TEME","SITE":"AFETR","OBJECT_NAME":"STARLINK-1444","LAUNCH_DATE":"2020-06-04","EPOCH":"2022-05-09T15:44:55.732704","COUNTRY_CODE":"US","OBJECT_ID":"2020-035E","OBJECT_TYPE":"PAYLOAD","DECAY_DATE":null,"ELEMENT_SET_NO":"999","MEAN_MOTION":"15.06396656","ARG_OF_PERICENTER":"66.7789","PERIOD":"95.592","MEAN_MOTION_DOT":"0.00000652","RCS_SIZE":"LARGE","GP_ID":"203139534","CLASSIFICATION_TYPE":"U","MEAN_ELEMENT_THEORY":"SGP4","ECCENTRICITY":"0.00013950","INCLINATION":"53.0558","MEAN_MOTION_DDOT":"0.0000000000000","SEMIMAJOR_AXIS":"6925.359","PERIAPSIS":"546.258","BSTAR":"0.00006269700000","FILE":"3438010","NORAD_CAT_ID":"45661","APOAPSIS":"548.190","REV_AT_EPOCH":"10771","RA_OF_ASC_NODE":"231.6129","TLE_LINE1":"1 45661U 20035E   22129.65620061  .00000652  00000-0  62697-4 0  9991","TIME_SYSTEM":"UTC","EPHEMERIS_TYPE":"0","CENTER_NAME":"EARTH","MEAN_ANOMALY":"293.3347"}];
